OBJECT_NAME,OBJECT_ID,EPOCH,MEAN_MOTION,ECCENTRICITY,INCLINATION,RA_OF_ASC_NODE,ARG_OF_PERICENTER,MEAN_ANOMALY,EPHEMERIS_TYPE,CLASSIFICATION_TYPE,NORAD_CAT_ID,ELEMENT_SET_NO,REV_AT_EPOCH,BSTAR,MEAN_MOTION_DOT,MEAN_MOTION_DDOT
HORUS 1,2023-025A,2026-07-18T14:46:16.462848,15.23557697,.00030096,97.3448,273.5496,108.4654,251.6911,0,U,55690,999,18883,.1152364E-3,.2685E-4,0
HORUS 2,2023-032A,2026-07-18T15:38:05.021664,15.23363977,.00013301,97.3520,274.4187,137.2498,222.8843,0,U,55844,999,18627,.11440391E-3,.2649E-4,0
GLOBAL-19,2023-041B,2026-07-18T12:29:59.710272,15.38735731,.00100555,42.0022,19.0626,238.9092,121.0762,0,U,55982,999,18675,.19613083E-3,.7428E-4,0
ION SCV-010,2023-054Q,2026-07-18T05:38:19.695552,15.26439662,.00146455,97.3734,88.3383,94.7838,265.5073,0,U,56192,999,18093,.92834968E-4,.2352E-4,0
TELEOS-2,2023-057C,2026-07-18T14:46:17.012352,14.96383082,.00005589,9.9897,335.3483,281.4952,78.5199,0,U,56310,999,17751,.95076126E-4,.1794E-4,0
SNIPE 4,2023-072B,2026-07-18T14:28:19.485984,15.43480358,.00050942,97.5226,46.6276,192.4713,167.6410,0,U,56744,999,17495,.26763322E-3,.11904E-3,0
SNIPE 2,2023-072C,2026-07-18T14:45:57.600864,15.48342197,.00035271,97.5215,49.9104,217.9370,142.1632,0,U,56745,999,17510,.30654332E-3,.16129E-3,0
2023-072G,2023-072G,2026-07-18T14:28:04.914624,15.52260371,.00027852,97.4873,48.7395,192.2255,167.8930,0,U,56749,999,17533,.2944519E-3,.17796E-3,0
GEISAT PRECURSOR,2023-084C,2026-07-18T15:25:24.878784,15.35037108,.00047621,97.6264,341.6469,215.4825,144.6101,0,U,56934,999,17235,.11014591E-3,.3659E-4,0
BLACKJACK ACES-3,2023-084U,2026-07-18T06:29:44.998080,15.18804797,.00009761,97.6251,334.7098,206.9796,153.1387,0,U,56950,999,17188,.12979802E-3,.263E-4,0
BLACKJACK ACES-2,2023-084Z,2026-07-18T08:13:20.429184,15.18757111,.00018089,97.6249,334.8659,135.2459,224.8922,0,U,56955,999,17190,.16189853E-3,.3293E-4,0
BLACKJACK ACES-1,2023-084AA,2026-07-18T07:55:17.743008,15.18761324,.00021681,97.6239,334.6246,115.8330,244.3128,0,U,56956,999,12162,.17333032E-3,.3531E-4,0
ION SCV-011,2023-084AB,2026-07-18T11:30:20.128896,15.29115656,.00058584,98.1381,29.6649,291.9980,68.0635,0,U,56957,999,17059,.99713464E-4,.273E-4,0
GHOST-3,2023-084AC,2026-07-18T07:30:30.723840,15.48858381,.0006908,97.6254,349.5835,174.5114,185.6213,0,U,56958,999,17283,.20024075E-3,.10692E-3,0
AFR-1,2023-084AJ,2026-07-18T15:38:54.081312,15.28793485,.00094968,97.6315,337.1127,221.3673,138.6848,0,U,56964,999,17203,.86618214E-4,.2346E-4,0
METEOR-M2 3,2023-091A,2026-07-18T15:30:32.605344,14.24049122,.00051243,98.6066,253.9779,82.6290,277.5471,0,U,57166,999,15899,.10629993E-4,-.19E-6,0
UMKA 1 (RS40S),2023-091G,2026-07-18T14:33:27.568512,15.21142062,.00126958,97.5030,258.1868,18.0786,342.0898,0,U,57172,999,16878,.1302093E-3,.2834E-4,0
2023-091H,2023-091H,2026-07-18T14:19:22.762272,15.29255993,.00092273,97.5026,263.0544,13.5698,346.5788,0,U,57173,999,16910,.19639017E-3,.5502E-4,0
2023-091J,2023-091J,2026-07-18T13:57:15.854400,15.14123702,.00141593,97.5040,252.2309,45.4704,314.7681,0,U,57174,999,16838,.91992071E-4,.1613E-4,0
CUBEBEL 2 (EU11S),2023-091K,2026-07-18T14:03:47.877120,15.29869815,.00091816,97.5028,263.0969,14.8734,345.2775,0,U,57175,999,16910,.2275335E-3,.651E-4,0
SITRO-AIS 5 (KATYS),2023-091L,2026-07-18T14:20:20.936256,15.30107283,.00103043,97.5038,263.8079,0.3225,359.8020,0,U,57176,999,16914,.20675161E-3,.5954E-4,0
ZORKIY-2M 1,2023-091M,2026-07-18T14:10:35.657472,15.21273283,.00130666,97.5071,258.4613,14.8764,345.2853,0,U,57177,999,16877,.14843069E-3,.3253E-4,0
CUBESX-HSE 3 (RS42S),2023-091N,2026-07-18T14:22:39.543456,15.31932082,.00092996,97.5070,265.5972,349.4248,10.6796,0,U,57178,999,16923,.21819162E-3,.6655E-4,0
MONITOR-3 (RS58S),2023-091Q,2026-07-18T13:31:26.550336,15.28408885,.00106438,97.5062,263.2499,357.5653,2.5533,0,U,57180,999,16908,.17801971E-3,.4853E-4,0
MONITOR-4 (RS57S),2023-091S,2026-07-18T14:33:02.008800,15.28496473,.00106415,97.5055,263.2659,357.8685,2.2507,0,U,57182,999,16909,.18414293E-3,.5037E-4,0
MONITOR-2 (RS39S),2023-091U,2026-07-18T14:27:00.016128,15.19170926,.00110522,97.5052,257.6843,12.5861,347.5647,0,U,57184,999,16872,.10603398E-3,.2163E-4,0
SVYATOBOR 1 (RS60S),2023-091X,2026-07-18T15:32:10.062816,15.27094642,.0008381,97.5068,263.6464,352.0406,8.0699,0,U,57187,999,16911,.16230777E-3,.4241E-4,0
HORS 1,2023-091Y,2026-07-18T13:33:38.470176,15.27214608,.00078391,97.5046,263.3221,352.5156,7.5965,0,U,57188,999,16910,.167074E-3,.4383E-4,0
VIZARD-METEO (RS38S),2023-091Z,2026-07-18T14:27:53.632512,15.36936812,.00053735,97.5071,269.7367,324.8977,35.1912,0,U,57189,999,16951,.24157122E-3,.8645E-4,0
SITRO-AIS 6 (CHIRKIN),2023-091AC,2026-07-18T14:01:42.364704,15.26472247,.00108085,97.5047,262.7444,4.7185,355.4153,0,U,57192,999,16907,.18797426E-3,.4834E-4,0
