HORUS 1                 
1 55690U 23025A   26199.61546832  .00002685  00000+0  11524-3 0  9995
2 55690  97.3448 273.5496 0003009 108.4654 251.6911 15.23557697188831
HORUS 2                 
1 55844U 23032A   26199.65144701  .00002649  00000+0  11440-3 0  9994
2 55844  97.3520 274.4187 0001330 137.2498 222.8843 15.23363977186277
GLOBAL-19               
1 55982U 23041B   26199.52082998  .00007428  00000+0  19613-3 0  9992
2 55982  42.0022  19.0626 0010055 238.9092 121.0762 15.38735731186758
ION SCV-010             
1 56192U 23054Q   26199.23495018  .00002352  00000+0  92835-4 0  9998
2 56192  97.3734  88.3383 0014645  94.7838 265.5073 15.26439662180933
TELEOS-2                
1 56310U 23057C   26199.61547468  .00001794  00000+0  95076-4 0  9991
2 56310   9.9897 335.3483 0000558 281.4952  78.5199 14.96383082177511
SNIPE 4                 
1 56744U 23072B   26199.60300331  .00011904  00000+0  26763-3 0  9994
2 56744  97.5226  46.6276 0005094 192.4713 167.6410 15.43480358174957
SNIPE 2                 
1 56745U 23072C   26199.61525001  .00016129  00000+0  30654-3 0  9997
2 56745  97.5215  49.9104 0003527 217.9370 142.1632 15.48342197175108
2023-072G               
1 56749U 23072G   26199.60283466  .00017796  00000+0  29445-3 0  9993
2 56749  97.4873  48.7395 0002785 192.2255 167.8930 15.52260371175330
GEISAT PRECURSOR        
1 56934U 23084C   26199.64264906  .00003659  00000+0  11015-3 0  9991
2 56934  97.6264 341.6469 0004762 215.4825 144.6101 15.35037108172350
BLACKJACK ACES-3        
1 56950U 23084U   26199.27065970  .00002630  00000+0  12980-3 0  9998
2 56950  97.6251 334.7098 0000976 206.9796 153.1387 15.18804797171885
BLACKJACK ACES-2        
1 56955U 23084Z   26199.34259756  .00003293  00000+0  16190-3 0  9991
2 56955  97.6249 334.8659 0001808 135.2459 224.8922 15.18757111171907
BLACKJACK ACES-1        
1 56956U 23084AA  26199.33006647  .00003531  00000+0  17333-3 0  9995
2 56956  97.6239 334.6246 0002168 115.8330 244.3128 15.18761324121629
ION SCV-011             
1 56957U 23084AB  26199.47939964  .00002730  00000+0  99713-4 0  9991
2 56957  98.1381  29.6649 0005858 291.9980  68.0635 15.29115656170595
GHOST-3                 
1 56958U 23084AC  26199.31285560  .00010692  00000+0  20024-3 0  9995
2 56958  97.6254 349.5835 0006908 174.5114 185.6213 15.48858381172839
AFR-1                   
1 56964U 23084AJ  26199.65201483  .00002346  00000+0  86618-4 0  9990
2 56964  97.6315 337.1127 0009496 221.3673 138.6848 15.28793485172032
METEOR-M2 3             
1 57166U 23091A   26199.64621071 -.00000019  00000+0  10630-4 0  9998
2 57166  98.6066 253.9779 0005124  82.6290 277.5471 14.24049122158997
UMKA 1 (RS40S)          
1 57172U 23091G   26199.60656908  .00002834  00000+0  13021-3 0  9990
2 57172  97.5030 258.1868 0012695  18.0786 342.0898 15.21142062168787
2023-091H               
1 57173U 23091H   26199.59679123  .00005502  00000+0  19639-3 0  9999
2 57173  97.5026 263.0544 0009227  13.5698 346.5788 15.29255993169108
2023-091J               
1 57174U 23091J   26199.58143350  .00001613  00000+0  91992-4 0  9999
2 57174  97.5040 252.2309 0014159  45.4704 314.7681 15.14123702168380
CUBEBEL 2 (EU11S)       
1 57175U 23091K   26199.58597080  .00006510  00000+0  22753-3 0  9992
2 57175  97.5028 263.0969 0009181  14.8734 345.2775 15.29869815169103
SITRO-AIS 5 (KATYS)     
1 57176U 23091L   26199.59746454  .00005954  00000+0  20675-3 0  9997
2 57176  97.5038 263.8079 0010304   0.3225 359.8020 15.30107283169143
ZORKIY-2M 1             
1 57177U 23091M   26199.59069048  .00003253  00000+0  14843-3 0  9995
2 57177  97.5071 258.4613 0013066  14.8764 345.2853 15.21273283168776
CUBESX-HSE 3 (RS42S)    
1 57178U 23091N   26199.59906879  .00006655  00000+0  21819-3 0  9998
2 57178  97.5070 265.5972 0009299 349.4248  10.6796 15.31932082169231
MONITOR-3 (RS58S)       
1 57180U 23091Q   26199.56350174  .00004853  00000+0  17802-3 0  9994
2 57180  97.5062 263.2499 0010643 357.5653   2.5533 15.28408885169086
MONITOR-4 (RS57S)       
1 57182U 23091S   26199.60627325  .00005037  00000+0  18414-3 0  9991
2 57182  97.5055 263.2659 0010641 357.8685   2.2507 15.28496473169093
MONITOR-2 (RS39S)       
1 57184U 23091U   26199.60208352  .00002163  00000+0  10603-3 0  9997
2 57184  97.5052 257.6843 0011052  12.5861 347.5647 15.19170926168723
SVYATOBOR 1 (RS60S)     
1 57187U 23091X   26199.64733869  .00004241  00000+0  16231-3 0  9992
2 57187  97.5068 263.6464 0008381 352.0406   8.0699 15.27094642169116
HORS 1                  
1 57188U 23091Y   26199.56502859  .00004383  00000+0  16707-3 0  9992
2 57188  97.5046 263.3221 0007839 352.5156   7.5965 15.27214608169100
VIZARD-METEO (RS38S)    
1 57189U 23091Z   26199.60270408  .00008645  00000+0  24157-3 0  9993
2 57189  97.5071 269.7367 0005373 324.8977  35.1912 15.36936812169516
SITRO-AIS 6 (CHIRKIN)   
1 57192U 23091AC  26199.58451811  .00004834  00000+0  18797-3 0  9992
2 57192  97.5047 262.7444 0010808   4.7185 355.4153 15.26472247169078
